CSS (TIANHE)            
1 48274U 21035A   23224.05552988  .00013360  00000+0  16115-3 0  9990
2 48274  41.4728 176.3337 0007584 133.0419 227.1056 15.60498181130569
